STARLINK-5893           
1 55952U 23037AQ  23084.91667824 -.01029220  30944-3 -36019-2 0  9993
2 55952  69.9997 158.5450 0008903 212.4292  35.0712 15.88993009  1301
STARLINK-5889           
1 55953U 23037AR  23084.91667824 -.01026120  30765-3 -35956-2 0  9990
2 55953  69.9999 158.5456 0008659 216.4742  30.5414 15.88970996  1301
STARLINK-5892           
1 55954U 23037AS  23084.91667824 -.01029608  30996-3 -35858-2 0  9992
2 55954  69.9997 158.5422 0008735 215.4275  34.5247 15.89092883  1307
STARLINK-5878           
1 55955U 23037AT  23084.91667824 -.01028403  30913-3 -35913-2 0  9996
2 55955  69.9997 158.5437 0008544 218.9047  29.8536 15.89041518  1304
STARLINK-5883           
1 55956U 23037AU  23084.91667824 -.01028483  30939-3 -35785-2 0  9990
2 55956  69.9997 158.5416 0008688 214.9738  35.4602 15.89112338  1300
STARLINK-5884           
1 55957U 23037AV  23084.91667824 -.00997145  29190-3 -34781-2 0  9992
2 55957  69.9998 158.5439 0011126 214.1521  34.3341 15.89015418  1309
STARLINK-5928           
1 55958U 23037AW  23084.91667824 -.01028910  30945-3 -35907-2 0  9990
2 55958  69.9998 158.5432 0008695 215.7275  33.2503 15.89052507  1301
STARLINK-5929           
1 55959U 23037AX  23084.91667824 -.01028554  30928-3 -35879-2 0  9994
2 55959  69.9997 158.5431 0008606 216.8577  32.3562 15.89062499  1305
STARLINK-5938           
1 55960U 23037AY  23084.91667824 -.01029946  31026-3 -35797-2 0  9991
2 55960  69.9997 158.5409 0008799 213.6010  37.3400 15.89132562  1307
STARLINK-5933           
1 55961U 23037AZ  23084.91667824 -.01028853  30957-3 -35817-2 0  9993
2 55961  69.9997 158.5419 0008612 216.9351  33.2449 15.89102868  1301
STARLINK-5906           
1 55962U 23037BA  23084.91667824 -.01028364  30923-3 -35832-2 0  9991
2 55962  69.9997 158.5423 0008761 214.1358  35.5566 15.89082621  1308
STARLINK-5924           
1 55963U 23037BB  23084.91667824 -.01028134  30907-3 -35839-2 0  9996
2 55963  69.9997 158.5428 0008874 213.1550  36.2959 15.89072452  1307
STARLINK-5895           
1 55964U 23037BC  23084.91667824 -.00938908  26099-3 -32740-2 0  9990
2 55964  70.0002 158.5446 0013412 210.4952  37.4841 15.88963466  1304
STARLINK-5894           
1 55965U 23037BD  23084.91667824 -.01028384  30936-3 -35763-2 0  9993
2 55965  69.9998 158.5413 0008762 214.9046  35.7976 15.89121560  1307
FALCON 9 DEB            
1 55966U 23037BE  23084.63985501  .01941601  40891-5  10301-2 0  9996
2 55966  69.9814 159.0234 0049954 150.0080 210.4019 16.16591874  1421
FALCON 9 DEB            
1 55967U 23037BF  23084.57390159  .02047858  41067-5  10573-2 0  9998
2 55967  69.9842 159.1972 0042248 153.0674 207.2753 16.17803402  1416
FALCON 9 DEB            
1 55968U 23037BG  23084.62862002  .02536368  41303-5  10468-2 0  9991
2 55968  69.9864 158.9888 0037977 146.1689 214.1967 16.20973265  1420
FALCON 9 DEB            
1 55969U 23037BH  23084.62936717  .02333293  41186-5  10013-2 0  9994
2 55969  69.9864 158.9908 0041688 150.3678 209.9919 16.20117495  1427
SES-18                  
1 55970U 23038A   23083.67384855 -.00000169  00000+0  00000+0 0  9999
2 55970  15.1276 357.3162 5847644 181.0226 271.5530  2.00498341   234
SES-19                  
1 55971U 23038B   23083.69938324 -.00000167  00000+0  00000+0 0  9996
2 55971  15.7042 357.1717 5984346 180.9198 259.2107  2.02859372   200
2023-038C               
1 55972U 23038C   23083.87795060  .00007798  00000+0  21883-2 0  9996
2 55972  26.9114 355.5174 5921241 184.2284 166.0162  4.14028499   380
2023-039A               
1 55973U 23039A   23084.93992694  .00006669  00000+0  32510-3 0  9994
2 55973  97.4168 235.5826 0010906 240.4683 244.0219 15.18602260   542
2023-039B               
1 55974U 23039B   23084.93477860  .00013251  00000+0  63844-3 0  9997
2 55974  97.4091 235.5738 0010728 244.8350 213.8781 15.18807814   530
2023-039C               
1 55975U 23039C   23084.93791834  .00012226  00000+0  58762-3 0  9992
2 55975  97.4136 235.5806 0009974 246.0394 231.2763 15.18918978   527
2023-039D               
1 55976U 23039D   23084.93717475  .00013311  00000+0  63314-3 0  9997
2 55976  97.4151 235.5813 0010389 255.5336 221.9978 15.19257561   525
COSMOS 2567             
1 55978U 23040A   23084.93439907 -.00000097  00000+0  00000+0 0  9999
2 55978  97.6354 339.1729 0066845  62.5883   2.2615 15.37609894   418
SL-4 R/B                
1 55979U 23040B   23084.95282407  .00046990  00000+0  63915-3 0  9992
2 55979  97.6432 339.2384 0113954  66.1697 132.4218 15.50018481   417
2023-041A               
1 55981U 23041A   23084.78759300 -.00000274  00000+0  00000+0 0  9996
2 55981  42.0168 246.6870 0006892 299.9518 147.5170 15.37983941   210
2023-041B               
1 55982U 23041B   23084.78835956 -.00000273  00000+0  00000+0 0  9998
2 55982  42.0175 246.6886 0006748 285.8800 165.7460 15.37804275   210
2023-041C               
1 55983U 23041C   23084.64152541 -.00000276  00000+0  00000+0 0  9999
2 55983  42.0168 247.5333 0009375 279.8998  80.1269 15.38292649   191
2023-041D               
1 55984U 23041D   23084.80317994  .01038378  39345-3  27591-2 0  9992
2 55984  41.9709 246.0959 0149331  25.1786 337.1459 15.77524693   223
2023-041E               
1 55985U 23041E   23084.87344351  .01792117  74951-5  10130-2 0  9990
2 55985  42.0178 245.5215 0176881 270.7774 200.0522 15.92298203   221
